GSAT0101 (PRN E11)      
1 37846U 11060A   22144.20159322 -.00000106  00000+0  00000+0 0  9999
2 37846  56.9874  21.9944 0004096  30.2169 329.8465  1.70475054 65807
GSAT0102 (PRN E12)      
1 37847U 11060B   22143.82685868 -.00000106  00000+0  00000+0 0  9996
2 37847  56.9882  22.0044 0004110 359.8453 176.8627  1.70475349 65923
GSAT0103 (PRN E19)      
1 38857U 12055A   22144.24129400  .00000073  00000+0  00000+0 0  9997
2 38857  55.1316 142.3638 0005543 269.5962  90.3502  1.70473678 59698
GSAT0104 (PRN E20)      
1 38858U 12055B   22144.21145745  .00000073  00000+0  00000+0 0  9995
2 38858  55.1319 142.3660 0003103 270.8463  89.1280  1.70473954 59694
GSAT0201 (PRN E18)      
1 40128U 14050A   22143.95445457 -.00000098  00000+0  00000+0 0  9996
2 40128  50.2996 333.2570 1628973 123.1383 253.5817  1.85518786 50766
GSAT0202 (PRN E14)      
1 40129U 14050B   22143.67653819 -.00000095  00000+0  00000+0 0  9996
2 40129  50.3254 332.3278 1626060 123.9369 252.6236  1.85519391 52925
GSAT0203 (PRN E26)      
1 40544U 15017A   22143.98236526 -.00000106  00000+0  00000+0 0  9990
2 40544  56.7828  22.0370 0001529 289.8592  70.1636  1.70475693 43887
GSAT0204 (PRN E22)      
1 40545U 15017B   22143.06189738 -.00000105  00000+0  00000+0 0  9991
2 40545  56.7877  22.0744 0000742 250.0405 109.9907  1.70475480  6915
GSAT0205 (PRN E24)      
1 40889U 15045A   22142.82894262 -.00000043  00000+0  00000+0 0  9992
2 40889  55.6406 262.6708 0004174  24.6265 335.3833  1.70473835 41673
GSAT0206 (PRN E30)      
1 40890U 15045B   22144.22287803 -.00000052  00000+0  00000+0 0  9997
2 40890  55.6385 262.6283 0002260  14.9324 345.0593  1.70473953 41729
GSAT0209 (PRN E09)      
1 41174U 15079A   22143.81084278  .00000072  00000+0  00000+0 0  9996
2 41174  55.1477 142.0788 0005589 302.7769  57.1779  1.70474468 39457
GSAT0208 (PRN E08)      
1 41175U 15079B   22144.03029126  .00000072  00000+0  00000+0 0  9993
2 41175  55.1462 142.0715 0004848 301.3547  58.6069  1.70474511 39871
GSAT0211 (PRN E02)      
1 41549U 16030A   22144.14983674 -.00000052  00000+0  00000+0 0  9994
2 41549  55.7840 262.5608 0002866 332.3840  27.5861  1.70475387 37357
GSAT0210 (PRN E01)      
1 41550U 16030B   22143.85589759 -.00000050  00000+0  00000+0 0  9997
2 41550  55.7840 262.5704 0002170 285.1683  74.7940  1.70475534 37349
GSAT0207 (PRN E07)      
1 41859U 16069A   22144.10374436  .00000072  00000+0  00000+0 0  9997
2 41859  54.8083 142.2581 0005810 292.1296  67.8182  1.70473140 34089
GSAT0212 (PRN E03)      
1 41860U 16069B   22141.61079617  .00000065  00000+0  00000+0 0  9997
2 41860  54.8045 142.3246 0004314 307.5214  52.4433  1.70473107 34292
GSAT0213 (PRN E04)      
1 41861U 16069C   22143.73600089  .00000071  00000+0  00000+0 0  9993
2 41861  54.8079 142.2710 0005566 275.4133  84.5322  1.70473258 34197
GSAT0214 (PRN E05)      
1 41862U 16069D   22143.29648447  .00000070  00000+0  00000+0 0  9994
2 41862  54.8061 142.2777 0004648 278.7427  81.2126  1.70473243 34329
GSAT0215 (PRN E21)      
1 43055U 17079A   22137.92137227 -.00000014  00000+0  00000+0 0  9993
2 43055  55.7641 262.5647 0001475 280.5096  79.4583  1.70474511 27562
GSAT0216 (PRN E25)      
1 43056U 17079B   22142.90628212 -.00000044  00000+0  00000+0 0  9990
2 43056  55.7610 262.4275 0003336 279.0223  80.9298  1.70474704 27663
GSAT0217 (PRN E27)      
1 43057U 17079C   22141.36677481 -.00000030  00000+0  00000+0 0  9997
2 43057  55.7604 262.4696 0002917 298.4787  61.4858  1.70474601 27626
GSAT0218 (PRN E31)      
1 43058U 17079D   22141.58679306 -.00000032  00000+0  00000+0 0  9992
2 43058  55.7601 262.4609 0003732 274.6392  85.3118  1.70474591 27624
GSAT0221 (PRN E15)      
1 43564U 18060A   22142.65849856 -.00000103  00000+0  00000+0 0  9992
2 43564  57.1648  21.8822 0002733 311.2355  48.7810  1.70475421 23827
GSAT0222 (PRN E33)      
1 43565U 18060B   22144.05153084 -.00000106  00000+0  00000+0 0  9993
2 43565  57.1672  21.8450 0002764 326.0952  33.9271  1.70475460 23890
GSAT0219 (PRN E36)      
1 43566U 18060C   22137.23307469 -.00000081  00000+0  00000+0 0  9996
2 43566  57.1652  22.0317 0002648 330.4509  29.5845  1.70475324 23754
GSAT0220 (PRN E13)      
1 43567U 18060D   22143.90560351 -.00000106  00000+0  00000+0 0  9997
2 43567  57.1675  21.8505 0002377 324.9638  35.0604  1.70475314 23851
GSAT0223                
1 49809U 21116A   22138.81482987 -.00000087  00000+0  00000+0 0  9998
2 49809  57.1581  21.8877 0001066 106.7385  98.9565  1.70475156  2768
GSAT0224                
1 49810U 21116B   22140.34615858 -.00000094  00000+0  00000+0 0  9994
2 49810  57.1596  21.8438 0001475  80.2722  97.7137  1.70475161  2829
